[{"OBJECT_NAME":"TIANMU-1 08","OBJECT_ID":"2023-101B","EPOCH":"2026-03-07T00:03:25.475616","MEAN_MOTION":15.29204229,"ECCENTRICITY":0.00063808,"INCLINATION":97.2717,"RA_OF_ASC_NODE":118.7901,"ARG_OF_PERICENTER":134.2174,"MEAN_ANOMALY":225.9592,"EPHEMERIS_TYPE":0,"CLASSIFICATION_TYPE":"U","NORAD_CAT_ID":57400,"ELEMENT_SET_NO":999,"REV_AT_EPOCH":14602,"BSTAR":1.4774513e-5,"MEAN_MOTION_DOT":3.46e-6,"MEAN_MOTION_DDOT":0},{"OBJECT_NAME":"STARLINK-32921","OBJECT_ID":"2025-027P","EPOCH":"2026-03-09T05:32:10.918752","MEAN_MOTION":15.27612444,"ECCENTRICITY":0.00014204,"INCLINATION":42.9985,"RA_OF_ASC_NODE":131.3284,"ARG_OF_PERICENTER":183.4353,"MEAN_ANOMALY":176.6489,"EPHEMERIS_TYPE":0,"CLASSIFICATION_TYPE":"U","NORAD_CAT_ID":62920,"ELEMENT_SET_NO":999,"REV_AT_EPOCH":6147,"BSTAR":0.0010649414,"MEAN_MOTION_DOT":0.00029188,"MEAN_MOTION_DDOT":0}]
